HAWK-2A                 
1 47505U 21006CW  26068.67946547  .00008113  00000+0  25431-3 0  9990
2 47505  97.2459 115.6184 0006450 187.1463 172.9689 15.33304498284242
STARLINK-32816          
1 63050U 25034X   26068.88097850  .00030074  00000+0  10233-2 0  9999
2 63050  53.1603 270.1885 0000856  94.5988 265.5110 15.30202650 58936
